*******************************************************************************
JPL/HORIZONS                769 Tatjana (A913 TD)          2023-Sep-04 11:08:13
Rec #:     769 (+COV) Soln.date: 2023-Aug-24_17:13:38   # obs: 7181 (1914-2023)
 
IAU76/J2000 helio. ecliptic osc. elements (au, days, deg., period=Julian yrs):
 
  EPOCH=  2456995.5 ! 2014-Dec-04.00 (TDB)         Residual RMS= .27781
   EC= .1855049051223756   QR= 2.582097274823493   TP= 2457080.4305406092
   OM= 38.49802105769969   W=  254.0323953893023   IN= 7.368114090756039
   A= 3.170181491653361    MA= 345.1699787534201   ADIST= 3.758265708483228
   PER= 5.64462            N= .174613527           ANGMOM= .030096737
   DAN= 3.2257             DDN= 2.91246            L= 292.4043263
   B= -7.0823465           MOID= 1.57947004        TP= 2015-Feb-26.9305406092
 
Asteroid physical parameters (km, seconds, rotational period in hours):
   GM= n.a.                RAD= 48.36              ROTPER= 35.08
   H= 9.23                 G= .150                 B-V= n.a.
                           ALBEDO= .052            STYP= n.a.

ASTEROID comments: 
1: soln ref.= JPL#64, OCC=0
2: source=ORB
*******************************************************************************


*******************************************************************************
Ephemeris / API_USER Mon Sep  4 11:08:13 2023 Pasadena, USA      / Horizons
*******************************************************************************
Target body name: 769 Tatjana (A913 TD)           {source: JPL#64}
Center body name: Solar System Barycenter (0)     {source: DE441}
Center-site name: BODY CENTER
*******************************************************************************
Start time      : A.D. 2023-Aug-12 00:00:00.0000 TDB
Stop  time      : A.D. 2023-Aug-13 00:00:00.0000 TDB
Step-size       : 2880 minutes
*******************************************************************************
Center geodetic : 0.0, 0.0, 0.0                   {E-lon(deg),Lat(deg),Alt(km)}
Center cylindric: 0.0, 0.0, 0.0                   {E-lon(deg),Dxy(km),Dz(km)}
Center radii    : (undefined)
Small perturbers: Yes                             {source: SB441-N16}
Output units    : KM-S
Calendar mode   : Mixed Julian/Gregorian
Output type     : GEOMETRIC cartesian states
Output format   : 2 (position and velocity)
Reference frame : Ecliptic of J2000.0
*******************************************************************************
Initial IAU76/J2000 heliocentric ecliptic osculating elements (au, days, deg.):
  EPOCH=  2456995.5 ! 2014-Dec-04.00 (TDB)         Residual RMS= .27781        
   EC= .1855049051223756   QR= 2.582097274823493   TP= 2457080.4305406092      
   OM= 38.49802105769969   W=  254.0323953893023   IN= 7.368114090756039       
  Equivalent ICRF heliocentric cartesian coordinates (au, au/d):
   X= 2.261587869205250E-02  Y=-2.278107971582849E+00  Z=-1.276212402599146E+00
  VX= 1.148239280105003E-02 VY= 1.127443857866853E-03 VZ=-4.230563709705574E-04
Asteroid physical parameters (km, seconds, rotational period in hours):        
   GM= n.a.                RAD= 48.36              ROTPER= 35.08               
   H= 9.23                 G= .150                 B-V= n.a.                   
                           ALBEDO= .052            STYP= n.a.                  
*******************************************************************************
JDTDB
   X     Y     Z
   VX    VY    VZ
*******************************************************************************
$$SOE
2460168.500000000 = A.D. 2023-Aug-12 00:00:00.0000 TDB 
 X =-2.086029235064256E+08 Y = 5.176546059263939E+08 Z = 6.920006693969300E+07
 VX=-1.281803340556083E+01 VY=-5.238317052299771E+00 VZ= 4.997608539990390E-01
$$EOE
*******************************************************************************
 
TIME

  Barycentric Dynamical Time ("TDB" or T_eph) output was requested. This
continuous coordinate time is equivalent to the relativistic proper time
of a clock at rest in a reference frame co-moving with the solar system
barycenter but outside the system's gravity well. It is the independent
variable in the solar system relativistic equations of motion.

  TDB runs at a uniform rate of one SI second per second and is independent
of irregularities in Earth's rotation.
 
CALENDAR SYSTEM

  Mixed calendar mode was active such that calendar dates after AD 1582-Oct-15
(if any) are in the modern Gregorian system. Dates prior to 1582-Oct-5 (if any)
are in the Julian calendar system, which is automatically extended for dates
prior to its adoption on 45-Jan-1 BC.  The Julian calendar is useful for
matching historical dates. The Gregorian calendar more accurately corresponds
to the Earth's orbital motion and seasons. A "Gregorian-only" calendar mode is
available if such physical events are the primary interest.

REFERENCE FRAME AND COORDINATES

  Ecliptic at the standard reference epoch

    Reference epoch: J2000.0
    X-Y plane: adopted Earth orbital plane at the reference epoch
               Note: IAU76 obliquity of 84381.448 arcseconds wrt ICRF X-Y plane
    X-axis   : ICRF
    Z-axis   : perpendicular to the X-Y plane in the directional (+ or -) sense
               of Earth's north pole at the reference epoch.

  Symbol meaning:

    JDTDB    Julian Day Number, Barycentric Dynamical Time
      X      X-component of position vector (km)
      Y      Y-component of position vector (km)
      Z      Z-component of position vector (km)
      VX     X-component of velocity vector (km/sec)                           
      VY     Y-component of velocity vector (km/sec)                           
      VZ     Z-component of velocity vector (km/sec)                           

ABERRATIONS AND CORRECTIONS

 Geometric state vectors have NO corrections or aberrations applied.

Computations by ...

    Solar System Dynamics Group, Horizons On-Line Ephemeris System
    4800 Oak Grove Drive, Jet Propulsion Laboratory
    Pasadena, CA  91109   USA

    General site: https://ssd.jpl.nasa.gov/
    Mailing list: https://ssd.jpl.nasa.gov/email_list.html
    System news : https://ssd.jpl.nasa.gov/horizons/news.html
    User Guide  : https://ssd.jpl.nasa.gov/horizons/manual.html
    Connect     : browser        https://ssd.jpl.nasa.gov/horizons/app.html#/x
                  API            https://ssd-api.jpl.nasa.gov/doc/horizons.html
                  command-line   telnet ssd.jpl.nasa.gov 6775
                  e-mail/batch   https://ssd.jpl.nasa.gov/ftp/ssd/hrzn_batch.txt
                  scripts        https://ssd.jpl.nasa.gov/ftp/ssd/SCRIPTS
    Author      : Jon.D.Giorgini@jpl.nasa.gov
*******************************************************************************
